FM3
1 25158U 98007B   19032.93281479 +.00000037 +00000-0 +65325-4 0  9998
2 25158 108.0022 059.2417 0050185 325.0983 034.6868 14.29348759091202
